,id,url,landmark_id,category_name,name,lat,lon,city,state,country,image_path
1475,02539da7cdfed3c5,https://upload.wikimedia.org/wikipedia/commons/f/f4/Bug_Powder_Dust_Pitch_One_%2833485187773%29.jpg,184919,Category:Grampians_National_Park,Glenelg River Road,-37.2078,142.4,,Victoria,Australia,data/train/images/0/2/5/02539da7cdfed3c5.jpg
1525,02a1f6a8ced0b3fb,http://upload.wikimedia.org/wikipedia/commons/a/a9/HMAS-Castlemaine-gun-2-1.jpg,77952,Category:HMAS_Castlemaine,HMAS Castlemaine,-37.8611,144.9056,,Victoria,Australia,data/train/images/0/2/a/02a1f6a8ced0b3fb.jpg
54193,023f9c88eaa86ce6,http://upload.wikimedia.org/wikipedia/commons/3/35/Lockett_End.jpg,27254,Category:Docklands_Stadium,Marvel Stadium,-37.81638889,144.9475,Melbourne,Victoria,Australia,data/train/images/0/2/3/023f9c88eaa86ce6.jpg
72394,0256972dfc9ea0f8,http://upload.wikimedia.org/wikipedia/commons/1/1b/USS_Canberra_Bell.jpg,139899,Category:Australian_National_Maritime_Museum,Waterfront Promenade,-33.8692,151.199,Sydney,New South Wales,Australia,data/train/images/0/2/5/0256972dfc9ea0f8.jpg
94216,01735504fab9d7fb,https://upload.wikimedia.org/wikipedia/commons/a/ad/Lookout_at_Goodela.jpg,17552,Category:Blackdown_Tableland_National_Park,Dingo,-23.7236,149.06,,Queensland,Australia,data/train/images/0/1/7/01735504fab9d7fb.jpg
100476,01f057ca54cc5045,https://upload.wikimedia.org/wikipedia/commons/f/fc/Sydney_NSW_2000%2C_Australia_-_panoramio_%28431%29.jpg,161726,Category:ANZAC_War_Memorial_(Sydney),ANZAC Memorial,-33.87572222,151.21094444,Sydney,New South Wales,Australia,data/train/images/0/1/f/01f057ca54cc5045.jpg
100781,00fc92625a5b0fbf,https://upload.wikimedia.org/wikipedia/commons/7/7d/Snowy_Mountains_-_klokani_-_panoramio.jpg,73064,Category:Kosciuszko_National_Park,Intake Tower,-35.99833333,148.3344444,,New South Wales,Australia,data/train/images/0/0/f/00fc92625a5b0fbf.jpg
136315,02dc282ee0371df3,https://upload.wikimedia.org/wikipedia/commons/8/83/TSB_Bank_ATM_Auckland.jpg,128549,"Category:Queen_Street,_Auckland",,-36.8498,174.765,Auckland,Auckland,New Zealand,data/train/images/0/2/d/02dc282ee0371df3.jpg
150701,000b4bc5e95dc56f,http://upload.wikimedia.org/wikipedia/commons/7/7e/Gold_Logie.jpg,157922,Category:Powerhouse_Museum,Powerhouse Museum,-33.87861111,151.19944444,Sydney,New South Wales,Australia,data/train/images/0/0/0/000b4bc5e95dc56f.jpg
187361,0091cb722a8d384d,https://upload.wikimedia.org/wikipedia/commons/6/62/Long_drop_gallow.JPG,81760,Category:Old_Melbourne_Gaol,RMIT University,-37.80805556,144.96527778,Melbourne,Victoria,Australia,data/train/images/0/0/9/0091cb722a8d384d.jpg
192206,02edb7593adbd10c,https://upload.wikimedia.org/wikipedia/commons/9/92/Gladesville_Bridge_-_panoramio_%282%29.jpg,186200,Category:Lane_Cove_National_Park,Riverside Drive,-33.7836,151.139,Sydney,New South Wales,Australia,data/train/images/0/2/e/02edb7593adbd10c.jpg
226082,024cf1ce6118c88f,https://upload.wikimedia.org/wikipedia/commons/3/36/The_Joker_%286719094173%29.jpg,134454,Category:Sydney_Park,,-33.9105,151.185,Sydney,New South Wales,Australia,data/train/images/0/2/4/024cf1ce6118c88f.jpg
244755,006d802f6274fdee,https://upload.wikimedia.org/wikipedia/commons/b/b7/Eucalyptus_benthamii_02.jpg,169701,Category:Australian_National_Botanic_Gardens,Australian National Botanic Gardens,-35.27888889,149.10916667,Canberra,,Australia,data/train/images/0/0/6/006d802f6274fdee.jpg
246460,02c2cd57b1b2a215,https://upload.wikimedia.org/wikipedia/commons/5/5d/Outback_Trip_-_Kata_Tjuta_Sunset_Happy_Hour_II_%284156883321%29.jpg,148806,Category:Uluru-Kata_Tjuta_National_Park,Petermann,-25.322076,130.985732,,,Australia,data/train/images/0/2/c/02c2cd57b1b2a215.jpg
260389,007f40daf4665a7d,https://upload.wikimedia.org/wikipedia/commons/8/8d/Cortinarius_australiensisLNCP4.jpg,186200,Category:Lane_Cove_National_Park,Riverside Drive,-33.7836,151.139,Sydney,New South Wales,Australia,data/train/images/0/0/7/007f40daf4665a7d.jpg
268308,0255d1bff7611f8e,http://upload.wikimedia.org/wikipedia/commons/2/2b/Dave_evan_bicentennial_tree_3.JPG,81541,Category:Warren_National_Park,Warren River Loop,-34.5006,115.956,,Western Australia,Australia,data/train/images/0/2/5/0255d1bff7611f8e.jpg
281816,0010735a4548dc8d,https://upload.wikimedia.org/wikipedia/commons/e/e3/Noosa_beach-raffi_kojian-CIMG6544.JPG,182417,Category:Noosa_National_Park,Tanglewood Track,-26.38444444,153.11277778,Noosa Heads,Queensland,Australia,data/train/images/0/0/1/0010735a4548dc8d.jpg
282376,01e547aeea3ab3f5,https://upload.wikimedia.org/wikipedia/commons/9/9e/Pomatostomus_superciliosus_%2832284540420%29.jpg,174812,Category:Wyperfeld_National_Park,Millers Track,-35.3892,141.877,,Victoria,Australia,data/train/images/0/1/e/01e547aeea3ab3f5.jpg
299972,01318597f13b0fd7,https://upload.wikimedia.org/wikipedia/commons/5/5a/Willowbank_Wildlife_Reserve_08.JPG,163364,Category:Willowbank_Wildlife_Reserve,,-43.4628,172.594,Christchurch,Canterbury,New Zealand,data/train/images/0/1/3/01318597f13b0fd7.jpg
312186,0281396ad07e2278,https://upload.wikimedia.org/wikipedia/commons/7/7c/4%E5%85%84%E5%BC%9F_brothers_-_panoramio.jpg,7930,Category:Lake_Wakatipu,Queenstown-Lakes District,-45.085,168.561,,Otago,New Zealand,data/train/images/0/2/8/0281396ad07e2278.jpg
329819,005a762f7e4d9b2c,https://upload.wikimedia.org/wikipedia/commons/8/87/Ferry_at_Wellington_Heads%2C_New_Zealand%2C_3rd._Dec._2010_-_Flickr_-_PhillipC.jpg,80942,Category:Wellington_Harbour,Ngauranga,-41.267655,174.838536,Wellington,Wellington,New Zealand,data/train/images/0/0/5/005a762f7e4d9b2c.jpg
342337,004ad6102adffac4,http://upload.wikimedia.org/wikipedia/commons/1/1e/Sydney_Olympic_Park_Abattoir_Heritage_Precinct.JPG,170575,Category:Sydney_Olympic_Park,Olympic Plaza,-33.8475,151.065,Sydney,New South Wales,Australia,data/train/images/0/0/4/004ad6102adffac4.jpg
344080,00fb7313c422b1c9,https://upload.wikimedia.org/wikipedia/commons/1/14/Seals%40melb_zoo.jpg,72871,Category:Melbourne_Zoo,Melbourne Zoological Gardens,-37.784762,144.952095,Melbourne,Victoria,Australia,data/train/images/0/0/f/00fb7313c422b1c9.jpg
346717,024e62cd20e19e66,https://upload.wikimedia.org/wikipedia/commons/f/f8/Sunland_Shopping_Centre_Opening_Plaque%2C_1988.jpg,119768,"Category:Caloundra,_Queensland",,-26.79861111,153.12888889,Sunshine Coast Regional,Queensland,Australia,data/train/images/0/2/4/024e62cd20e19e66.jpg
355007,01f2b583385d612f,https://upload.wikimedia.org/wikipedia/commons/f/f0/Drummond_res-10.JPG,139591,Category:Drummond_Nature_Reserve,Drummond Nature Reserve,-31.317,116.407,,Western Australia,Australia,data/train/images/0/1/f/01f2b583385d612f.jpg
369769,029681885195d105,https://upload.wikimedia.org/wikipedia/commons/f/f6/BBlanche-3866.jpg,73053,Category:Guy_Fawkes_River_National_Park,The Gulf,-30.03166667,152.3011111,,New South Wales,Australia,data/train/images/0/2/9/029681885195d105.jpg
389878,006b2c4c552123ba,https://upload.wikimedia.org/wikipedia/commons/2/25/Lady_Norwood_Rose_-_panoramio.jpg,140361,Category:Wellington_Botanic_Garden,Discovery Garden,-41.2829,174.766,Wellington,Wellington,New Zealand,data/train/images/0/0/6/006b2c4c552123ba.jpg
397841,006b0346bf9c478b,https://upload.wikimedia.org/wikipedia/commons/f/f8/Uluru_with_Kata_Tjuta_in_the_background.jpg,148806,Category:Uluru-Kata_Tjuta_National_Park,Petermann,-25.322076,130.985732,,,Australia,data/train/images/0/0/6/006b0346bf9c478b.jpg
399638,01406e372460ed7b,https://upload.wikimedia.org/wikipedia/commons/d/d2/Barossa_Valley_Banner.jpg,10933,Category:Barossa_Valley,Barossa Trail,-34.53333333,138.95,Tanunda,South Australia,Australia,data/train/images/0/1/4/01406e372460ed7b.jpg
411163,00a80f1f0dba44c2,http://upload.wikimedia.org/wikipedia/commons/2/2a/Southern-cross-station-melbourne-morning.jpg,161229,Category:Southern_Cross_Station,Southern Cross,-37.81835833,144.95241667,Melbourne,Victoria,Australia,data/train/images/0/0/a/00a80f1f0dba44c2.jpg
411314,01f15b240a667181,https://upload.wikimedia.org/wikipedia/commons/c/c0/Island_Trader_%2832004909644%29.jpg,17949,Category:Lord_Howe_Island,Smoking Tree Ridge Road,-31.55,159.08333333,Lord Howe Island,New South Wales,Australia,data/train/images/0/1/f/01f15b240a667181.jpg
433495,00a2b222d7f08fb4,https://upload.wikimedia.org/wikipedia/commons/1/15/Freo_prison_WMAU_gnangarra-139.jpg,110717,Category:Fremantle_Prison,Fremantle Prison,-32.055039,115.753177,Fremantle,Western Australia,Australia,data/train/images/0/0/a/00a2b222d7f08fb4.jpg
448892,0074a174e8830af2,https://upload.wikimedia.org/wikipedia/commons/0/0e/Kosciuszko_National_Park_NSW_2627%2C_Australia_-_panoramio_%28246%29.jpg,73064,Category:Kosciuszko_National_Park,Intake Tower,-35.99833333,148.3344444,,New South Wales,Australia,data/train/images/0/0/7/0074a174e8830af2.jpg
465341,0160a9da26c47d50,https://upload.wikimedia.org/wikipedia/commons/1/1f/East_Cape_Road%2C_Gisborne_District.jpg,94424,Category:East_Cape,East Cape Lighthouse,-37.6927,178.55,,Gisborne,New Zealand,data/train/images/0/1/6/0160a9da26c47d50.jpg
497090,02b0fe99e07acaa3,https://upload.wikimedia.org/wikipedia/commons/3/32/Grays_Point_-_panoramio_%282%29.jpg,177194,Category:Royal_National_Park,Karani Trail,-34.13166667,151.0511111,,New South Wales,Australia,data/train/images/0/2/b/02b0fe99e07acaa3.jpg
506307,0283937e36c0239a,https://upload.wikimedia.org/wikipedia/commons/6/65/Noosa_National_Park%2C_Noosa_Heads%2C_Queensland_04.jpg,182417,Category:Noosa_National_Park,Tanglewood Track,-26.38444444,153.11277778,Noosa Heads,Queensland,Australia,data/train/images/0/2/8/0283937e36c0239a.jpg
524870,02a6075250cf1f28,https://upload.wikimedia.org/wikipedia/commons/b/b4/Ostend%2C_New_Zealand.jpg,81069,Category:Waiheke_Island,Awaroa Organic Winery,-36.8,175.1,Waiheke,Auckland,New Zealand,data/train/images/0/2/a/02a6075250cf1f28.jpg
524875,02e42d5d22f693ac,https://upload.wikimedia.org/wikipedia/commons/1/18/Ocean_Beach_%2823980693803%29.jpg,130118,Category:Cocos_(Keeling)_Islands,Jalan Bunga Mawar,-12.1175,96.895,Bantam,,Australia,data/train/images/0/2/e/02e42d5d22f693ac.jpg
603750,0164983b631f78ee,https://upload.wikimedia.org/wikipedia/commons/4/46/Up_close_to_Uluru.jpg,148806,Category:Uluru-Kata_Tjuta_National_Park,Petermann,-25.322076,130.985732,,,Australia,data/train/images/0/1/6/0164983b631f78ee.jpg
632873,02c5d61029956165,http://upload.wikimedia.org/wikipedia/commons/b/b9/Aircraftman_1st_Class_E_H_Lee_gravestone_in_the_Wagga_Wagga_War_Cemetery.jpg,186921,Category:Wagga_Wagga_War_Cemetery,Rocky Hill Reserve,-35.13698428,147.38822861,Wagga Wagga City Council,New South Wales,Australia,data/train/images/0/2/c/02c5d61029956165.jpg
638548,01b16fadb6285c26,http://upload.wikimedia.org/wikipedia/commons/c/c5/NarrowsBridgeLocation.gif,143736,"Category:Narrows_Bridge,_Perth",Narrows Bridge,-31.96333333,115.84694444,Perth,Western Australia,Australia,data/train/images/0/1/b/01b16fadb6285c26.jpg
639730,0248f7c452d3c20e,https://upload.wikimedia.org/wikipedia/commons/5/50/Jacaranda_Time_Port_Augusta.jpg,195301,Category:Flinders_Ranges,Moolooloo,-30.92,138.62,,South Australia,Australia,data/train/images/0/2/4/0248f7c452d3c20e.jpg
709730,000c3af381491785,http://upload.wikimedia.org/wikipedia/commons/c/c2/Petrogale_xanthopus_-_Monarto_2.JPG,183340,Category:Monarto_Zoo,,-35.1021,139.142,,South Australia,Australia,data/train/images/0/0/0/000c3af381491785.jpg
743475,02fca5bb4d2e5f8a,https://upload.wikimedia.org/wikipedia/commons/b/b4/The_Lavendar_Hills_of_the_North_Flinders_Ranges_-_panoramio.jpg,195301,Category:Flinders_Ranges,Moolooloo,-30.92,138.62,,South Australia,Australia,data/train/images/0/2/f/02fca5bb4d2e5f8a.jpg
752200,023c7b23005af8f5,https://upload.wikimedia.org/wikipedia/commons/0/06/Meridiastra_calcar_%2842551733071%29.jpg,25110,Category:Murramarang_National_Park,North Durras Road,-35.63166667,150.3177778,Durras North,New South Wales,Australia,data/train/images/0/2/3/023c7b23005af8f5.jpg
769573,017284f6f85d791f,https://upload.wikimedia.org/wikipedia/commons/6/65/The_Royal_National_Park_Coast_Track_-_panoramio.jpg,177194,Category:Royal_National_Park,Karani Trail,-34.13166667,151.0511111,,New South Wales,Australia,data/train/images/0/1/7/017284f6f85d791f.jpg
786487,014307f954bb9018,https://upload.wikimedia.org/wikipedia/commons/e/eb/Botany_Bay_NSW_2019%2C_Australia_-_panoramio_%281%29.jpg,68675,"Category:Botany_Bay,_Sydney",Botany Bay,-33.983333,151.183333,Sydney,New South Wales,Australia,data/train/images/0/1/4/014307f954bb9018.jpg
828083,0104853f9ae1d853,https://upload.wikimedia.org/wikipedia/commons/7/7b/Melodorum_leichhardtii_twining.jpg,102197,Category:Mount_Archer_National_Park,Zamia Walk,-23.32527778,150.58194444,Rockhampton,Queensland,Australia,data/train/images/0/1/0/0104853f9ae1d853.jpg
842360,002b338be37f9438,https://upload.wikimedia.org/wikipedia/commons/0/0e/Hawkesbury_River_36.jpg,37844,Category:Hawkesbury_River,Patonga,-33.565,151.3,,New South Wales,Australia,data/train/images/0/0/2/002b338be37f9438.jpg
881187,025f0f8e82412deb,https://upload.wikimedia.org/wikipedia/commons/7/7a/Old_sign_on_Evans_Ridge_-_panoramio.jpg,195510,Category:Abel_Tasman_National_Park,Tasman District,-40.90002778,172.9715,,Tasman,New Zealand,data/train/images/0/2/5/025f0f8e82412deb.jpg
892008,026366a4e0311a57,https://upload.wikimedia.org/wikipedia/commons/2/2a/Rene_Farrell_YM.jpg,166222,Category:Adelaide_Oval,,-34.91555556,138.59611111,Adelaide,South Australia,Australia,data/train/images/0/2/6/026366a4e0311a57.jpg
897454,00df9b8cece194bf,https://upload.wikimedia.org/wikipedia/commons/6/60/Dales_Gorge%2C_WA.jpg,90544,Category:Karijini_National_Park,Hamersley Gorge Road,-22.2506,117.976,,Western Australia,Australia,data/train/images/0/0/d/00df9b8cece194bf.jpg
910031,0082c91621b75dc5,https://upload.wikimedia.org/wikipedia/commons/d/d7/Tonkin_hwy_sth_end_gnangarra.JPG,88115,Category:Darling_Range,Mount Cooke,-32.4167,116.3,,Western Australia,Australia,data/train/images/0/0/8/0082c91621b75dc5.jpg
913054,02dc7a8f3fc9dba8,https://upload.wikimedia.org/wikipedia/commons/e/e0/Mount_Ruapehu_January2005.jpg,31601,Category:Mount_Ruapehu,Ruapehu District,-39.28166667,175.56861111,,Manawat큰-Whanganui,New Zealand,data/train/images/0/2/d/02dc7a8f3fc9dba8.jpg
933156,02c3a94d6319de54,https://upload.wikimedia.org/wikipedia/commons/9/93/Uluru_before_Sunrise_-_2013.04_-_panoramio.jpg,148806,Category:Uluru-Kata_Tjuta_National_Park,Petermann,-25.322076,130.985732,,,Australia,data/train/images/0/2/c/02c3a94d6319de54.jpg
933271,0192263fd4bee8fc,https://upload.wikimedia.org/wikipedia/commons/3/3d/%281%29GPO_Sydney-3.jpg,131538,"Category:General_Post_Office,_Sydney",Sydney General Post Office,-33.867773,151.207748,Sydney,New South Wales,Australia,data/train/images/0/1/9/0192263fd4bee8fc.jpg
942966,00c264a378ff3b45,https://upload.wikimedia.org/wikipedia/commons/8/89/Red-Browed_Firetail_-_adult_and_young.jpg,84187,Category:Bunya_Mountains_National_Park,Bunya Mountains,-26.79944444,151.53694444,,Queensland,Australia,data/train/images/0/0/c/00c264a378ff3b45.jpg
947618,0018ab53f32f84fd,https://upload.wikimedia.org/wikipedia/commons/b/bc/Mt_Remarkable_summit_path_-_panoramio_%281%29.jpg,195301,Category:Flinders_Ranges,Moolooloo,-30.92,138.62,,South Australia,Australia,data/train/images/0/0/1/0018ab53f32f84fd.jpg
990001,022df2e87116127c,http://upload.wikimedia.org/wikipedia/commons/4/46/Georges_River_Sailing_Club.jpg,156077,Category:Georges_River,,-33.964,150.981,Sydney,New South Wales,Australia,data/train/images/0/2/2/022df2e87116127c.jpg
996981,02590156bd205743,https://upload.wikimedia.org/wikipedia/commons/a/a7/Wellington_%286793560155%29.jpg,139513,Category:Te_Papa_Tongarewa,Museum of New Zealand Te Papa Tongarewa,-41.29055556,174.78194444,Wellington,Wellington,New Zealand,data/train/images/0/2/5/02590156bd205743.jpg
998795,00f3973057e9866e,https://upload.wikimedia.org/wikipedia/commons/f/fc/Asali_gnangarra_160915-104.jpg,183340,Category:Monarto_Zoo,,-35.1021,139.142,,South Australia,Australia,data/train/images/0/0/f/00f3973057e9866e.jpg
1004274,01f1eab911294393,http://upload.wikimedia.org/wikipedia/commons/6/69/Chilean_Flamingo-Adelaide_Zoo.jpg,101412,Category:Adelaide_Zoo,Adelaide Zoo,-34.91408889,138.60579444,Adelaide,South Australia,Australia,data/train/images/0/1/f/01f1eab911294393.jpg
1026577,01529663008058a1,https://upload.wikimedia.org/wikipedia/commons/3/36/John_McDougall_Stuart.JPG,104359,"Category:Victoria_Square,_Adelaide",Queen Street,-34.93055556,138.60416667,Adelaide,South Australia,Australia,data/train/images/0/1/5/01529663008058a1.jpg
1030332,003ff2ff9839d040,http://upload.wikimedia.org/wikipedia/commons/8/8f/St_Patrick%27s_Cathedral_%28Gothic_Revival_Style%29.jpg,105160,"Category:St_Patrick's_Cathedral,_Melbourne",,-37.8101,144.976,Melbourne,Victoria,Australia,data/train/images/0/0/3/003ff2ff9839d040.jpg
1064170,02009373f7845a3d,http://upload.wikimedia.org/wikipedia/commons/1/10/Monkey_Mia_Ausblick_WA.JPG,90733,Category:Monkey_Mia,Monkey Mia Road,-25.7947,113.717,Denham,Western Australia,Australia,data/train/images/0/2/0/02009373f7845a3d.jpg
1077614,014fa8cbf99bdb3d,https://upload.wikimedia.org/wikipedia/commons/2/2e/Naracoorte_Caves.jpg,52789,Category:Naracoorte_Caves_National_Park,Caves Cafe,-37.03611111,140.79666667,,South Australia,Australia,data/train/images/0/1/4/014fa8cbf99bdb3d.jpg
1102636,02f16f4259ff0628,https://upload.wikimedia.org/wikipedia/commons/b/bf/SydneyAMPTower_gobeirne.jpg,12440,Category:Sydney_Tower,Westfield Sydney,-33.870278,151.208889,Sydney,New South Wales,Australia,data/train/images/0/2/f/02f16f4259ff0628.jpg
1139230,013d911e388b33af,https://upload.wikimedia.org/wikipedia/commons/2/24/Milford_Sound_in_Fiordland_National_Park_17.jpg,50915,Category:Milford_Sound,Southland,-44.61666667,167.86666667,,Southland,New Zealand,data/train/images/0/1/3/013d911e388b33af.jpg
1161540,00c83dc09ebb75fd,https://upload.wikimedia.org/wikipedia/commons/3/36/Royal_National_Park_NSW_2233%2C_Australia_-_panoramio_%2835%29.jpg,177194,Category:Royal_National_Park,Karani Trail,-34.13166667,151.0511111,,New South Wales,Australia,data/train/images/0/0/c/00c83dc09ebb75fd.jpg
1165660,0054c77193783392,https://upload.wikimedia.org/wikipedia/commons/c/cb/Civic_Theatre_Interior_Auckland_3_%2831629714160%29.jpg,35608,Category:Auckland_Civic_Theatre,The Civic,-36.8511,174.764,Auckland,Auckland,New Zealand,data/train/images/0/0/5/0054c77193783392.jpg
1179682,0093983fb649920c,http://upload.wikimedia.org/wikipedia/commons/a/ac/Lake_Rotorua_panorama_1.jpg,10671,Category:Lake_Rotorua,Ngongotah훮,-38.08333333,176.26944444,Ngongotah훮,Bay of Plenty,New Zealand,data/train/images/0/0/9/0093983fb649920c.jpg
1183203,01ec13cb0e5d4dc9,https://upload.wikimedia.org/wikipedia/commons/b/b6/Milford_Sound_%28New_Zealand%29_-_9.jpg,50915,Category:Milford_Sound,Southland,-44.61666667,167.86666667,,Southland,New Zealand,data/train/images/0/1/e/01ec13cb0e5d4dc9.jpg
1202337,0147b0882d53969d,https://upload.wikimedia.org/wikipedia/commons/c/c1/Royal_National_Park_-_panoramio_%2832%29.jpg,177194,Category:Royal_National_Park,Karani Trail,-34.13166667,151.0511111,,New South Wales,Australia,data/train/images/0/1/4/0147b0882d53969d.jpg
1211428,0064d489edcc96c0,https://upload.wikimedia.org/wikipedia/commons/6/6a/Broken_tree%2C_Little_Desert_National_Park.JPG,150194,Category:Little_Desert_National_Park,Lillimur,-36.6067,141.189,,Victoria,Australia,data/train/images/0/0/6/0064d489edcc96c0.jpg
1213177,016f4f8ef0824744,https://upload.wikimedia.org/wikipedia/commons/f/fe/Tribe_%285811887838%29.jpg,27254,Category:Docklands_Stadium,Marvel Stadium,-37.81638889,144.9475,Melbourne,Victoria,Australia,data/train/images/0/1/6/016f4f8ef0824744.jpg
1214159,0193f3d1561a002c,https://upload.wikimedia.org/wikipedia/commons/9/97/Polycalymma_stuartii_%2832663694885%29.jpg,174812,Category:Wyperfeld_National_Park,Millers Track,-35.3892,141.877,,Victoria,Australia,data/train/images/0/1/9/0193f3d1561a002c.jpg
1245871,011f6a81c06fcf80,https://upload.wikimedia.org/wikipedia/commons/2/23/Freo_prison_WMAU_gnangarra-130.jpg,110717,Category:Fremantle_Prison,Fremantle Prison,-32.055039,115.753177,Fremantle,Western Australia,Australia,data/train/images/0/1/1/011f6a81c06fcf80.jpg
1255042,02cd816a43645f68,https://upload.wikimedia.org/wikipedia/commons/8/85/Hattah_Banner.JPG,36971,Category:Hattah-Kulkyne_National_Park,Bitterang Track,-34.6872,142.382,,Victoria,Australia,data/train/images/0/2/c/02cd816a43645f68.jpg
1272592,005c11567811bfea,https://upload.wikimedia.org/wikipedia/commons/9/9c/Royal_National_Park_NSW_2233%2C_Australia_-_panoramio_%28266%29.jpg,177194,Category:Royal_National_Park,Karani Trail,-34.13166667,151.0511111,,New South Wales,Australia,data/train/images/0/0/5/005c11567811bfea.jpg
1280148,006db62a0e6c47ae,https://upload.wikimedia.org/wikipedia/commons/f/fd/%281%29Sydney_Town_Hall_004.jpg,59068,Category:Sydney_Town_Hall,Sydney Town Hall,-33.8732,151.206,Sydney,New South Wales,Australia,data/train/images/0/0/6/006db62a0e6c47ae.jpg
1305345,0110b07a4268b627,https://upload.wikimedia.org/wikipedia/commons/b/b6/Orb-weaver_Spider_Web_%2834137809912%29.jpg,184919,Category:Grampians_National_Park,Glenelg River Road,-37.2078,142.4,,Victoria,Australia,data/train/images/0/1/1/0110b07a4268b627.jpg
1322726,00d7fc5c89ba3b70,https://upload.wikimedia.org/wikipedia/commons/3/39/Nan_Tien_Buddhist_Temple.jpg,126104,Category:Nan_Tien_Temple,Nan Tien Temple,-34.46666667,150.84861111,Wollongong City Council,New South Wales,Australia,data/train/images/0/0/d/00d7fc5c89ba3b70.jpg
1329538,0239ff8b230664a9,https://upload.wikimedia.org/wikipedia/commons/9/9d/Perth_%282052456780%29.jpg,132123,"Category:Kings_Park,_Western_Australia",Kings Park Botanic Gardens,-31.96213495,115.83171208,,Western Australia,Australia,data/train/images/0/2/3/0239ff8b230664a9.jpg
1333412,0083d4e5a1da6430,https://upload.wikimedia.org/wikipedia/commons/6/6d/1961_Belmont_Dorset_ski_runabout_%22Matilda%22_%287854060846%29.jpg,139899,Category:Australian_National_Maritime_Museum,Waterfront Promenade,-33.8692,151.199,Sydney,New South Wales,Australia,data/train/images/0/0/8/0083d4e5a1da6430.jpg
1336146,007171b2b77b2d63,https://upload.wikimedia.org/wikipedia/commons/c/c6/Parliament_House%2C_Alice_Street_facade%2C_Brisbane_01.jpg,48483,"Category:Parliament_House,_Brisbane",QUT Garden Points campus,-27.4754,153.027,Brisbane City,Queensland,Australia,data/train/images/0/0/7/007171b2b77b2d63.jpg
1362154,02ae4336890a67cc,https://upload.wikimedia.org/wikipedia/commons/f/f3/Patch_of_land_behind_the_Crowne_Plaza_hotel_in_Canberra_November_2018.jpg,154090,"Category:Glebe_Park,_Canberra",,-35.28227,149.13629,Canberra,,Australia,data/train/images/0/2/a/02ae4336890a67cc.jpg
1372740,02a1d46f115fa74a,https://upload.wikimedia.org/wikipedia/commons/9/9b/Mount_Anne_area_-_Mt_Anne_-_2805452046.jpg,177386,"Category:Mount_Anne,_Tasmania",Mount Anne,-42.942,146.424,,Tasmania,Australia,data/train/images/0/2/a/02a1d46f115fa74a.jpg
1376956,02e735e5a59b2a18,https://upload.wikimedia.org/wikipedia/commons/f/fc/Opuntia_robusta_close_up.jpg,102197,Category:Mount_Archer_National_Park,Zamia Walk,-23.32527778,150.58194444,Rockhampton,Queensland,Australia,data/train/images/0/2/e/02e735e5a59b2a18.jpg
1415634,0061dab6a2c5471d,https://upload.wikimedia.org/wikipedia/commons/4/46/Ferrosilite-111338.jpg,6577,Category:Mount_Tarawera,Rotorua Lakes District,-38.22675278,176.50646944,,Bay of Plenty,New Zealand,data/train/images/0/0/6/0061dab6a2c5471d.jpg
1475285,016a5d3989a3c39b,https://upload.wikimedia.org/wikipedia/commons/d/d9/Melbourne_VIC_3004%2C_Australia_-_panoramio_%28129%29.jpg,119608,"Category:Parliament_House,_Melbourne",Parliament,-37.8111,144.973,Melbourne,Victoria,Australia,data/train/images/0/1/6/016a5d3989a3c39b.jpg
1486950,01c1cb5e3f84ef84,https://upload.wikimedia.org/wikipedia/commons/3/35/Cape_Otway_Lighthouse_%2812051147803%29.jpg,100764,Category:Cape_Otway_Lighthouse,,-38.85722222,143.51166667,,Victoria,Australia,data/train/images/0/1/c/01c1cb5e3f84ef84.jpg
1497868,013ad310e0804ba7,https://upload.wikimedia.org/wikipedia/commons/7/78/Varanus_varius_%28Lace_Monitor%29_%284363866833%29.jpg,99710,Category:Croajingolong_National_Park,Wingan Link Road,-37.6167,149.4667,,Victoria,Australia,data/train/images/0/1/3/013ad310e0804ba7.jpg
1500661,015df0c49cd4de9a,https://upload.wikimedia.org/wikipedia/commons/b/b8/1924_Ner-A-Car_motorcycle_%286794234196%29.jpg,157922,Category:Powerhouse_Museum,Powerhouse Museum,-33.87861111,151.19944444,Sydney,New South Wales,Australia,data/train/images/0/1/5/015df0c49cd4de9a.jpg
1502149,00a4a469056675d2,https://upload.wikimedia.org/wikipedia/commons/a/ac/Uloola_Falls_-_panoramio.jpg,177194,Category:Royal_National_Park,Karani Trail,-34.13166667,151.0511111,,New South Wales,Australia,data/train/images/0/0/a/00a4a469056675d2.jpg
1528685,0124ad25dbd9c741,https://upload.wikimedia.org/wikipedia/commons/7/77/%281%29Myuna_Creek-4.jpg,109551,Category:Heathcote_National_Park,Pipeline Trail,-34.09833333,150.9761111,Sydney,New South Wales,Australia,data/train/images/0/1/2/0124ad25dbd9c741.jpg
1535693,02031d7855e58e14,https://upload.wikimedia.org/wikipedia/commons/6/6c/St_Paul_S_Cathedral_Melbourne_%2841726268%29.jpeg,105983,"Category:Swanston_Street,_Melbourne",,-37.8064,144.963,Melbourne,Victoria,Australia,data/train/images/0/2/0/02031d7855e58e14.jpg
1541076,00b07a7361f9e0e8,http://upload.wikimedia.org/wikipedia/commons/4/4c/%281%29Moonrise_Centennial_Park_Sydney_006.jpg,147120,"Category:Centennial_Park,_Sydney",Grand Drive,-33.9,151.23333333,Sydney,New South Wales,Australia,data/train/images/0/0/b/00b07a7361f9e0e8.jpg
1549971,028142758dac0dcf,https://upload.wikimedia.org/wikipedia/commons/d/db/Etihad_Stadium%2C_Melbourne_2017-10-28.jpg,27254,Category:Docklands_Stadium,Marvel Stadium,-37.81638889,144.9475,Melbourne,Victoria,Australia,data/train/images/0/2/8/028142758dac0dcf.jpg
1551417,01dd38421e56a890,https://upload.wikimedia.org/wikipedia/commons/3/30/Pool_of_Reflection_-_Araluen.jpg,134825,Category:Araluen_Botanical_Park,,-32.11877,116.10128,,Western Australia,Australia,data/train/images/0/1/d/01dd38421e56a890.jpg
1552708,01863c810326cc3f,https://upload.wikimedia.org/wikipedia/commons/b/b9/Asali_gnangarra_160915-137.jpg,183340,Category:Monarto_Zoo,,-35.1021,139.142,,South Australia,Australia,data/train/images/0/1/8/01863c810326cc3f.jpg
1574267,01fe9bd1aadd1536,https://upload.wikimedia.org/wikipedia/commons/5/5a/St_Patrick%27s_Basilica_91.JPG,202987,"Category:St_Patrick's_Basilica,_Dunedin",St Patrick's Basilica,-45.8951,170.503,Dunedin,Otago,New Zealand,data/train/images/0/1/f/01fe9bd1aadd1536.jpg
1575249,004391ded2aee21d,https://upload.wikimedia.org/wikipedia/commons/b/b1/Australia_Zoo_Moziac_Steve_Irwan-1_%2817587625904%29.jpg,70988,Category:Australia_Zoo,Australia Zoo Gift Shop,-26.8366,152.9595,Sunshine Coast Regional,Queensland,Australia,data/train/images/0/0/4/004391ded2aee21d.jpg
1587832,010c11d675a8e798,https://upload.wikimedia.org/wikipedia/commons/1/16/Filling_Parliament_House_steps_-_Save_Auslan_TAFE_Diploma_course_protest.jpg,119608,"Category:Parliament_House,_Melbourne",Parliament,-37.8111,144.973,Melbourne,Victoria,Australia,data/train/images/0/1/0/010c11d675a8e798.jpg
1590796,02b2870aaf1bfbd6,https://upload.wikimedia.org/wikipedia/commons/f/f8/HydeParkSandringham_gobeirne.jpg,73698,"Category:Hyde_Park,_Sydney","Hyde Park, Park St, Stand B",-33.8733,151.211,Sydney,New South Wales,Australia,data/train/images/0/2/b/02b2870aaf1bfbd6.jpg
1600210,02f238d272f152a2,https://upload.wikimedia.org/wikipedia/commons/9/96/Onslow_fin_and_Micropuffs.JPG,15864,Category:HMAS_Onslow,HMAS Vampire,-33.86925,151.19995,Sydney,New South Wales,Australia,data/train/images/0/2/f/02f238d272f152a2.jpg
1617685,0202ecd743300e89,http://upload.wikimedia.org/wikipedia/commons/6/6d/CSIRO_ScienceImage_11425_Rottnest_Island_Western_Australia.jpg,71853,Category:Rottnest_Island,Oliver Hill Road,-32.005,115.515,,Western Australia,Australia,data/train/images/0/2/0/0202ecd743300e89.jpg
1619131,0235e1fc7b2dda35,https://upload.wikimedia.org/wikipedia/commons/f/fb/Caladenia_chlorostyla_LC277_-_cropped.jpg,194189,Category:Kepler_Track,"Big Slip, Iris Burn (January1984)",-45.424167,167.5125,Fiordland Community,Southland,New Zealand,data/train/images/0/2/3/0235e1fc7b2dda35.jpg
1626881,01bf53ed2cb76944,https://upload.wikimedia.org/wikipedia/commons/c/c6/Wellington_City_Council_Zoo%2C_elephant_2.jpg,52315,Category:Wellington_Zoo,,-41.3196,174.784,Wellington,Wellington,New Zealand,data/train/images/0/1/b/01bf53ed2cb76944.jpg
1631268,01441e92cdf203ff,https://upload.wikimedia.org/wikipedia/commons/9/9b/Safety_barrier_along_pedestrian_footpath_at_Story_Bridge%2C_Brisbane.jpg,25296,"Category:Story_Bridge,_Brisbane",Story Bridge,-27.463752,153.035699,,Queensland,Australia,data/train/images/0/1/4/01441e92cdf203ff.jpg
1640159,02b7c9b17b226781,https://upload.wikimedia.org/wikipedia/commons/c/c0/Lake_Crackenback.jpg,73064,Category:Kosciuszko_National_Park,Intake Tower,-35.99833333,148.3344444,,New South Wales,Australia,data/train/images/0/2/b/02b7c9b17b226781.jpg
1673592,018306f95cb750db,https://upload.wikimedia.org/wikipedia/commons/1/14/Mount_Taranaki_%284839941351%29.jpg,72582,Category:Mount_Taranaki,North Egmont Summit Track,-39.29638889,174.06472222,,Taranaki,New Zealand,data/train/images/0/1/8/018306f95cb750db.jpg
1686517,01c3496dadab35a3,http://upload.wikimedia.org/wikipedia/commons/9/92/Danaus_plexippus_-_Anstey_Hill.jpg,155439,Category:Anstey_Hill_Recreation_Park,Anstey Hill Recreation Park,-34.8307,138.738,Adelaide,South Australia,Australia,data/train/images/0/1/c/01c3496dadab35a3.jpg
1710701,01d90c52d0b5f7f6,https://upload.wikimedia.org/wikipedia/commons/1/1a/Auburn_NSW_2144%2C_Australia_-_panoramio_%2858%29.jpg,160463,Category:Auburn_Botanical_Gardens,Fauna Reserve,-33.8588,151.017,Sydney,New South Wales,Australia,data/train/images/0/1/d/01d90c52d0b5f7f6.jpg
1715407,01490482e7424a8d,https://upload.wikimedia.org/wikipedia/commons/e/e7/Flickr_-_brewbooks_-_Matauri_Bay%2C_NZ_%282%29.jpg,52609,Category:Matauri_Bay,,-35.043,173.903,Bay of Islands-Whangaroa Community,Northland,New Zealand,data/train/images/0/1/4/01490482e7424a8d.jpg
1720718,01db775daf4c8ee9,https://upload.wikimedia.org/wikipedia/commons/1/12/Arapawa_Pigglet.jpg,164659,Category:Marlborough_Sounds,Marlborough District,-41.14166667,174.08944444,,Marlborough,New Zealand,data/train/images/0/1/d/01db775daf4c8ee9.jpg
1732616,02369f674d1bb011,https://upload.wikimedia.org/wikipedia/commons/1/15/Two_Pilons_on_the_Sea_Cliff_Bridge.jpg,165970,Category:Sea_Cliff_Bridge,Sea Cliff Bridge,-34.2539,150.974,Wollongong City Council,New South Wales,Australia,data/train/images/0/2/3/02369f674d1bb011.jpg
1735030,030704c1cbaecbaf,https://upload.wikimedia.org/wikipedia/commons/4/45/Sydney_Observatory_-_Sydney%2C_NSW_%287889931470%29.jpg,58573,Category:Sydney_Observatory,Sydney Observatory,-33.859559,151.204583,Sydney,New South Wales,Australia,data/train/images/0/3/0/030704c1cbaecbaf.jpg
1780648,02a7033d18778361,http://upload.wikimedia.org/wikipedia/commons/a/ab/Southern-cross-station-melbourne-construction.jpg,161229,Category:Southern_Cross_Station,Southern Cross,-37.81835833,144.95241667,Melbourne,Victoria,Australia,data/train/images/0/2/a/02a7033d18778361.jpg
1796867,02135e90d9539011,https://upload.wikimedia.org/wikipedia/commons/3/3d/Sydney_tower_with_possible_meteorite_shower.JPG,12440,Category:Sydney_Tower,Westfield Sydney,-33.870278,151.208889,Sydney,New South Wales,Australia,data/train/images/0/2/1/02135e90d9539011.jpg
1798445,02bd74d4860658e3,http://upload.wikimedia.org/wikipedia/commons/9/9e/Rialto_Towers.jpg,135030,Category:Rialto_Towers,,-37.81888889,144.95833333,Melbourne,Victoria,Australia,data/train/images/0/2/b/02bd74d4860658e3.jpg
1803840,0055713c5a9c2451,https://upload.wikimedia.org/wikipedia/commons/b/b3/1000_Steps%2C_Kokoda_Track_Memorial_Walk%2C_Dandenong_Ranges_National_Park.jpg,124651,Category:Dandenong_Ranges_National_Park,True Grit,-37.8103,145.386,Melbourne,Victoria,Australia,data/train/images/0/0/5/0055713c5a9c2451.jpg
1804962,01e388dcd8a78f9e,https://upload.wikimedia.org/wikipedia/commons/b/bf/The_Brisbane_river_and_the_Story_Bridge_at_dusk_%2811260907525%29.jpg,25296,"Category:Story_Bridge,_Brisbane",Story Bridge,-27.463752,153.035699,,Queensland,Australia,data/train/images/0/1/e/01e388dcd8a78f9e.jpg
1805797,01675686ac43d536,https://upload.wikimedia.org/wikipedia/commons/e/e8/No_28_Squadron_passing_the_official_party_during_its_Freedom_of_the_City_Parade_in_August_2013.jpg,79813,Category:Canberra_Museum_and_Gallery,Canberra Museum and Gallery,-35.2807,149.131,Canberra,,Australia,data/train/images/0/1/6/01675686ac43d536.jpg
1830790,027889d9664e75d8,https://upload.wikimedia.org/wikipedia/commons/f/fb/Karori_Fern_-_Flickr_-_Teacher_Traveler.jpg,119525,Category:Karori_Wildlife_Sanctuary,,-41.294375,174.750025,Wellington,Wellington,New Zealand,data/train/images/0/2/7/027889d9664e75d8.jpg
1839709,009ffbaab25763f9,http://upload.wikimedia.org/wikipedia/commons/9/93/Kirribilli_house.JPG,121838,Category:Kirribilli_House,Kirribilli Avenue,-33.8513,151.219,Sydney,New South Wales,Australia,data/train/images/0/0/9/009ffbaab25763f9.jpg
1882647,016476a6d3d4653a,https://upload.wikimedia.org/wikipedia/commons/b/ba/Leptospermum_coriaceum_%2832663695895%29.jpg,174812,Category:Wyperfeld_National_Park,Millers Track,-35.3892,141.877,,Victoria,Australia,data/train/images/0/1/6/016476a6d3d4653a.jpg
1891934,028b9285c1f20ae6,https://upload.wikimedia.org/wikipedia/commons/6/6e/Acacia_pendula%2C_habit.jpg,169701,Category:Australian_National_Botanic_Gardens,Australian National Botanic Gardens,-35.27888889,149.10916667,Canberra,,Australia,data/train/images/0/2/8/028b9285c1f20ae6.jpg
1900417,0203b63fc3ce9b96,https://upload.wikimedia.org/wikipedia/commons/5/56/Outback_Trip_-_Kata_Tjuta_3_%284147732317%29.jpg,148806,Category:Uluru-Kata_Tjuta_National_Park,Petermann,-25.322076,130.985732,,,Australia,data/train/images/0/2/0/0203b63fc3ce9b96.jpg
1921811,0025077cf9be7efe,https://upload.wikimedia.org/wikipedia/commons/2/2c/Fremantle_Prison_form_the_eastern_guard_tower_-_panoramio.jpg,110717,Category:Fremantle_Prison,Fremantle Prison,-32.055039,115.753177,Fremantle,Western Australia,Australia,data/train/images/0/0/2/0025077cf9be7efe.jpg
1937473,01cb40f8c8a559fc,http://upload.wikimedia.org/wikipedia/commons/8/8f/The_Grampians.jpg,184919,Category:Grampians_National_Park,Glenelg River Road,-37.2078,142.4,,Victoria,Australia,data/train/images/0/1/c/01cb40f8c8a559fc.jpg
1949148,01a3711c01ad3a9e,https://upload.wikimedia.org/wikipedia/commons/4/4a/Dragon_head_%2833335172672%29.jpg,138460,Category:Mornington_Peninsula,Bittern - Dromana Road,-38.351,145.064,Melbourne,Victoria,Australia,data/train/images/0/1/a/01a3711c01ad3a9e.jpg
2005879,01f5291ecc13eaa5,https://upload.wikimedia.org/wikipedia/commons/a/ac/WA_Legislative_Assembly_Speaker%27s_chair_2017.jpg,90496,"Category:Parliament_House,_Perth",Harvest Terrace,-31.9516,115.847,Perth,Western Australia,Australia,data/train/images/0/1/f/01f5291ecc13eaa5.jpg
2065482,02a47c66f43cdd3a,https://upload.wikimedia.org/wikipedia/commons/3/39/HMAS_Whyalla_%28J153%29%2C_2017_%2803%29.jpg,95636,Category:HMAS_Whyalla_(J153),,-33.019307,137.574888,,South Australia,Australia,data/train/images/0/2/a/02a47c66f43cdd3a.jpg
2077924,029da3bdac9363c4,https://upload.wikimedia.org/wikipedia/commons/b/bb/Britomart-greenwall.jpg,182230,Category:Britomart_Transport_Centre,Te Komititanga,-36.844014,174.76701,Auckland,Auckland,New Zealand,data/train/images/0/2/9/029da3bdac9363c4.jpg
2084740,012aad8d8b23d621,https://upload.wikimedia.org/wikipedia/commons/3/34/Mailorder_Bribe_%2834137668592%29.jpg,184919,Category:Grampians_National_Park,Glenelg River Road,-37.2078,142.4,,Victoria,Australia,data/train/images/0/1/2/012aad8d8b23d621.jpg
2116832,004e23b783b99899,https://upload.wikimedia.org/wikipedia/commons/0/02/The_Extension_Lead_%2833453648564%29.jpg,184919,Category:Grampians_National_Park,Glenelg River Road,-37.2078,142.4,,Victoria,Australia,data/train/images/0/0/4/004e23b783b99899.jpg
2120480,02f56a3c03a5bd97,http://upload.wikimedia.org/wikipedia/commons/1/19/Gallipoli_Gallery_at_the_Australian_War_Memorial_%28MG_9372%29.jpg,126465,Category:Australian_War_Memorial,Australian War Memorial,-35.280815,149.148707,Canberra,,Australia,data/train/images/0/2/f/02f56a3c03a5bd97.jpg
2130179,01db2e230a31a911,https://upload.wikimedia.org/wikipedia/commons/6/62/Royal_Park_%2CNSW.jpg,177194,Category:Royal_National_Park,Karani Trail,-34.13166667,151.0511111,,New South Wales,Australia,data/train/images/0/1/d/01db2e230a31a911.jpg
2134605,00c3b624ae32c963,https://upload.wikimedia.org/wikipedia/commons/6/65/Taronga_garden_clock_-_zahradn%C3%AD_hodiny_zoo_Taronga_-_panoramio.jpg,43835,Category:Taronga_Zoo,Taronga Zoo,-33.84333333,151.24111111,Sydney,New South Wales,Australia,data/train/images/0/0/c/00c3b624ae32c963.jpg
2144407,0023b688a0189024,https://upload.wikimedia.org/wikipedia/commons/6/66/Rg_104539.jpg,55336,Category:National_Museum_of_Australia,,-35.2931,149.121,Canberra,,Australia,data/train/images/0/0/2/0023b688a0189024.jpg
2159438,0111c56d4108bf25,https://upload.wikimedia.org/wikipedia/commons/2/24/Auckland%2C_New_Zealand-1402.jpg,182230,Category:Britomart_Transport_Centre,Te Komititanga,-36.844014,174.76701,Auckland,Auckland,New Zealand,data/train/images/0/1/1/0111c56d4108bf25.jpg
2170502,028028d8b04762b9,https://upload.wikimedia.org/wikipedia/commons/d/db/Cockatoo_Island_%2815721627741%29.jpg,59810,Category:Cockatoo_Island_(New_South_Wales),Cockatoo Island,-33.8475,151.1725,Sydney,New South Wales,Australia,data/train/images/0/2/8/028028d8b04762b9.jpg
2173220,02b98b26b93a965c,https://upload.wikimedia.org/wikipedia/commons/a/a0/Stylidium_ciliatum_gnangarra_01.JPG,187399,Category:John_Forrest_National_Park,John Forrest National Park,-31.869706,116.091161,,Western Australia,Australia,data/train/images/0/2/b/02b98b26b93a965c.jpg
2174972,01879b3a17250249,https://upload.wikimedia.org/wikipedia/commons/3/3e/Queensland_Maritime_Museum_-_Joy_of_Museums_-_HMAS_Diamantina_%28K377%29_9.jpg,70122,Category:Queensland_Maritime_Museum,Queensland Maritime Museum,-27.4819,153.026,,Queensland,Australia,data/train/images/0/1/8/01879b3a17250249.jpg
2191699,005c05e1da2f3757,http://upload.wikimedia.org/wikipedia/commons/0/08/HMAS-Castlemaine-1.jpg,77952,Category:HMAS_Castlemaine,HMAS Castlemaine,-37.8611,144.9056,,Victoria,Australia,data/train/images/0/0/5/005c05e1da2f3757.jpg
2196859,0100bb91b06f96e8,http://upload.wikimedia.org/wikipedia/commons/8/8d/Quokka_family.jpg,71853,Category:Rottnest_Island,Oliver Hill Road,-32.005,115.515,,Western Australia,Australia,data/train/images/0/1/0/0100bb91b06f96e8.jpg
2201451,02a7f914d445879e,http://upload.wikimedia.org/wikipedia/commons/d/d4/Brisbane_City_12076.jpg,25296,"Category:Story_Bridge,_Brisbane",Story Bridge,-27.463752,153.035699,,Queensland,Australia,data/train/images/0/2/a/02a7f914d445879e.jpg
2215821,02e568a4ad6255f8,https://upload.wikimedia.org/wikipedia/commons/c/c6/Mount_Kuring-gai_Trail_-_panoramio_%287%29.jpg,37463,Category:Ku-ring-gai_Chase_National_Park,Cowan Drive,-33.615,151.2011111,Sydney,New South Wales,Australia,data/train/images/0/2/e/02e568a4ad6255f8.jpg
2224313,00dcd2168b27ee3f,https://upload.wikimedia.org/wikipedia/commons/b/b3/Millers_Point_NSW_2000%2C_Australia_-_panoramio_%2859%29.jpg,58573,Category:Sydney_Observatory,Sydney Observatory,-33.859559,151.204583,Sydney,New South Wales,Australia,data/train/images/0/0/d/00dcd2168b27ee3f.jpg
2243690,0218a7cc3391b526,https://upload.wikimedia.org/wikipedia/commons/c/c1/Royal_National_Park_NSW_2233%2C_Australia_-_panoramio_%28202%29.jpg,177194,Category:Royal_National_Park,Karani Trail,-34.13166667,151.0511111,,New South Wales,Australia,data/train/images/0/2/1/0218a7cc3391b526.jpg
2247000,02f488166b1cf602,https://upload.wikimedia.org/wikipedia/commons/9/98/Christmas_trees_in_Glebe_Park%2C_2017.jpg,154090,"Category:Glebe_Park,_Canberra",,-35.28227,149.13629,Canberra,,Australia,data/train/images/0/2/f/02f488166b1cf602.jpg
2259086,0047533254536606,https://upload.wikimedia.org/wikipedia/commons/b/b2/Fort_Denison%2C_Sydney_Harbour%2C_New_South_Wales_%28483417%29_%289443078386%29.jpg,53714,Category:Fort_Denison,Fort Denison,-33.85478056,151.22562778,Sydney,New South Wales,Australia,data/train/images/0/0/4/0047533254536606.jpg
2264831,02ee0d2c4f844e18,http://upload.wikimedia.org/wikipedia/commons/a/a1/WWSME_plaque.jpg,149179,Category:Willans_Hill_Miniature_Railway,Wagga Wagga Botanical Garden & Zoo,-35.1309,147.367,Wagga Wagga City Council,New South Wales,Australia,data/train/images/0/2/e/02ee0d2c4f844e18.jpg
2271737,01dd2fbc7e8d3615,https://upload.wikimedia.org/wikipedia/commons/a/a7/Kites_on_the_sand_-_panoramio.jpg,119768,"Category:Caloundra,_Queensland",,-26.79861111,153.12888889,Sunshine Coast Regional,Queensland,Australia,data/train/images/0/1/d/01dd2fbc7e8d3615.jpg
2304138,01dc9de590100739,http://upload.wikimedia.org/wikipedia/commons/2/24/RAN-IFR_2013_D3_29.JPG,161337,Category:HMAS_Advance_(P_83),HMAS Vampire,-33.86916667,151.19991667,Sydney,New South Wales,Australia,data/train/images/0/1/d/01dc9de590100739.jpg
2305154,011dd313bddf86fa,https://upload.wikimedia.org/wikipedia/commons/6/66/Primera_Iglesia_de_Otago%2C_Dunedin%2C_Nueva_Zelanda_-_panoramio.jpg,163312,Category:First_Church_of_Otago,First Church of Otago,-45.876,170.50468056,Dunedin,Otago,New Zealand,data/train/images/0/1/1/011dd313bddf86fa.jpg
2313720,010409ffc460b92c,https://upload.wikimedia.org/wikipedia/commons/1/1d/The_Sydney_Opera_House_%28153419339%29.jpeg,55350,Category:Sydney_Opera_House,Sydney Opera House,-33.857058,151.214897,Sydney,New South Wales,Australia,data/train/images/0/1/0/010409ffc460b92c.jpg
2329392,00e36e18b8fc65b1,http://upload.wikimedia.org/wikipedia/commons/2/24/Entrance_to_Old_Parliament_House_during_Enlighten_2013.jpg,2650,"Category:Old_Parliament_House,_Canberra",Old Parliament House,-35.30222222,149.12972222,Canberra,,Australia,data/train/images/0/0/e/00e36e18b8fc65b1.jpg
2384555,02a0ba2a6dbae1d1,https://upload.wikimedia.org/wikipedia/commons/3/34/Maritime_Museum_%286181838025%29.jpg,15864,Category:HMAS_Onslow,HMAS Vampire,-33.86925,151.19995,Sydney,New South Wales,Australia,data/train/images/0/2/a/02a0ba2a6dbae1d1.jpg
2425605,02e13b1274317109,https://upload.wikimedia.org/wikipedia/commons/4/4a/Ruapehu-4963.jpg,31601,Category:Mount_Ruapehu,Ruapehu District,-39.28166667,175.56861111,,Manawat큰-Whanganui,New Zealand,data/train/images/0/2/e/02e13b1274317109.jpg
2455174,004c2950403e1cdb,https://upload.wikimedia.org/wikipedia/commons/2/23/Retaliation_%2834253478096%29.jpg,184919,Category:Grampians_National_Park,Glenelg River Road,-37.2078,142.4,,Victoria,Australia,data/train/images/0/0/4/004c2950403e1cdb.jpg
2468015,015bdb416e84b83c,https://upload.wikimedia.org/wikipedia/commons/6/64/Melaleuca_oxyphylla_habit.jpg,169701,Category:Australian_National_Botanic_Gardens,Australian National Botanic Gardens,-35.27888889,149.10916667,Canberra,,Australia,data/train/images/0/1/5/015bdb416e84b83c.jpg
2473566,024b8c5e0e77d7e7,https://upload.wikimedia.org/wikipedia/commons/2/2a/Kangaroo.rame.head.walpole.nornalup.np.western.australia.jpg,140233,Category:Walpole-Nornalup_National_Park,Bibbulmun Track,-34.9833,116.767,Walpole,Western Australia,Australia,data/train/images/0/2/4/024b8c5e0e77d7e7.jpg
2486965,0276eee51dd8bf1a,https://upload.wikimedia.org/wikipedia/commons/2/20/Dolphins_at_sea_world.jpg,81851,Category:Sea_World_(Australia),Sea World Monorail,-27.9559,153.4257,Gold Coast City,Queensland,Australia,data/train/images/0/2/7/0276eee51dd8bf1a.jpg
2491692,02402b295634cef2,http://upload.wikimedia.org/wikipedia/commons/8/8e/Flight_of_the_kea.jpg,194189,Category:Kepler_Track,"Big Slip, Iris Burn (January1984)",-45.424167,167.5125,Fiordland Community,Southland,New Zealand,data/train/images/0/2/4/02402b295634cef2.jpg
2508584,0202504a4c20cfa5,https://upload.wikimedia.org/wikipedia/commons/a/a0/Devil%27s_Marbles_03.jpg,145126,Category:Devils_Marbles_Conservation_Reserve,,-20.56666667,134.26666667,,,Australia,data/train/images/0/2/0/0202504a4c20cfa5.jpg
2509958,006ab6b960a4e023,https://upload.wikimedia.org/wikipedia/commons/c/c5/IA2015_gnangarra-123.jpg,18931,Category:Shrine_of_Remembrance,Shrine of Remembrance,-37.83055556,144.97344444,Melbourne,Victoria,Australia,data/train/images/0/0/6/006ab6b960a4e023.jpg
2532419,0112abe6463a19e2,https://upload.wikimedia.org/wikipedia/commons/b/b4/Devils_Marbles_Northern_Territory.jpg,145126,Category:Devils_Marbles_Conservation_Reserve,,-20.56666667,134.26666667,,,Australia,data/train/images/0/1/1/0112abe6463a19e2.jpg
2553909,011a5cf8d63ea8f3,http://upload.wikimedia.org/wikipedia/commons/7/79/Majestic_Centre_Wellington_O%27Reily_Ave.jpg,190119,Category:Majestic_Centre,22 Boulcott Street,-41.2884,174.774,Wellington,Wellington,New Zealand,data/train/images/0/1/1/011a5cf8d63ea8f3.jpg
2558050,026d5a14f125256b,http://upload.wikimedia.org/wikipedia/commons/b/b3/Karori_reservoir_1988_vs_2012.jpg,119525,Category:Karori_Wildlife_Sanctuary,,-41.294375,174.750025,Wellington,Wellington,New Zealand,data/train/images/0/2/6/026d5a14f125256b.jpg
2566594,016bb6eb89bb1faf,https://upload.wikimedia.org/wikipedia/commons/e/ea/Crossing_the_Sydney_Harbour_Bridge_%285691268185%29.jpg,94310,Category:Sydney_Harbour_Bridge,Sydney Harbour Bridge,-33.852232,151.210684,Sydney,New South Wales,Australia,data/train/images/0/1/6/016bb6eb89bb1faf.jpg
2572013,02f784994f1a9a2b,https://upload.wikimedia.org/wikipedia/commons/1/1b/Jacobs_Creek_%286800623189%29.jpg,10933,Category:Barossa_Valley,Barossa Trail,-34.53333333,138.95,Tanunda,South Australia,Australia,data/train/images/0/2/f/02f784994f1a9a2b.jpg
2578420,00e1a30ab8349d69,https://upload.wikimedia.org/wikipedia/commons/9/9b/Mt._Kosciuzsko_Track_with_Summit_in_the_middle.jpg,155754,Category:Mount_Kosciuszko,Kosciuszko Walk,-36.4558303,148.2635105,,New South Wales,Australia,data/train/images/0/0/e/00e1a30ab8349d69.jpg
2579680,029d549154ca0a2e,https://upload.wikimedia.org/wikipedia/commons/f/fa/Cable_Car%2C_Wellington%2C_New_Zealand.JPG,100738,Category:Wellington_Cable_Car,Wellington Botanic Garden,-41.28527778,174.7675,Wellington,Wellington,New Zealand,data/train/images/0/2/9/029d549154ca0a2e.jpg
2581238,0193d4d1d84c7ca0,https://upload.wikimedia.org/wikipedia/commons/e/e5/Looking_north_from_road_to_Cape_Leeuwin.jpg,136038,"Category:Cape_Leeuwin,_Western_Australia",,-34.376389,115.136389,,Western Australia,Australia,data/train/images/0/1/9/0193d4d1d84c7ca0.jpg
2653762,00760aa23ae454bc,https://upload.wikimedia.org/wikipedia/commons/c/cd/00_1386_New_Zealand_%28Fiordland_National_Park%29_-_Lake_Manapouri.jpg,120041,Category:Fiordland_National_Park,,-45.4167,167.717,Fiordland Community,Southland,New Zealand,data/train/images/0/0/7/00760aa23ae454bc.jpg
2662952,01e4fd283e54dcfd,http://upload.wikimedia.org/wikipedia/commons/6/6d/%281%29Duck_Pond-4.jpg,147120,"Category:Centennial_Park,_Sydney",Grand Drive,-33.9,151.23333333,Sydney,New South Wales,Australia,data/train/images/0/1/e/01e4fd283e54dcfd.jpg
2667528,01205964dcc7d98c,https://upload.wikimedia.org/wikipedia/commons/d/d2/Powerhouse_and_chimney_and_crane_at_Shipbuilding_Slipway_No.1_%2830278150064%29.jpg,59810,Category:Cockatoo_Island_(New_South_Wales),Cockatoo Island,-33.8475,151.1725,Sydney,New South Wales,Australia,data/train/images/0/1/2/01205964dcc7d98c.jpg
2724093,00baf5d2206fdc75,https://upload.wikimedia.org/wikipedia/commons/6/68/Pond_at_Goonininup.jpg,132123,"Category:Kings_Park,_Western_Australia",Kings Park Botanic Gardens,-31.96213495,115.83171208,,Western Australia,Australia,data/train/images/0/0/b/00baf5d2206fdc75.jpg
2725398,00c4c272665f6357,https://upload.wikimedia.org/wikipedia/commons/a/ac/%281%29Myuna_Creek-2.jpg,109551,Category:Heathcote_National_Park,Pipeline Trail,-34.09833333,150.9761111,Sydney,New South Wales,Australia,data/train/images/0/0/c/00c4c272665f6357.jpg
2725888,0249a3bb1fb3f710,https://upload.wikimedia.org/wikipedia/commons/a/a4/Banksia_Prionotes_flower_with_bee.jpg,139591,Category:Drummond_Nature_Reserve,Drummond Nature Reserve,-31.317,116.407,,Western Australia,Australia,data/train/images/0/2/4/0249a3bb1fb3f710.jpg
2736880,002ba7f9ee5dae49,http://upload.wikimedia.org/wikipedia/commons/6/6a/Fairbridge_Bluff%2C_Rottnest-8.jpg,71853,Category:Rottnest_Island,Oliver Hill Road,-32.005,115.515,,Western Australia,Australia,data/train/images/0/0/2/002ba7f9ee5dae49.jpg
2739431,02132b81582798c7,https://upload.wikimedia.org/wikipedia/commons/4/4c/Royal_Botanic_Gardens_lake.jpg,170943,"Category:Royal_Botanic_Gardens,_Melbourne",Royal Botanic Gardens,-37.83036,144.97961,Melbourne,Victoria,Australia,data/train/images/0/2/1/02132b81582798c7.jpg
2749193,0172c523af2de14f,https://upload.wikimedia.org/wikipedia/commons/6/65/Looking_down_the_landslide_path_-_panoramio.jpg,73064,Category:Kosciuszko_National_Park,Intake Tower,-35.99833333,148.3344444,,New South Wales,Australia,data/train/images/0/1/7/0172c523af2de14f.jpg
2765342,01f871b233ea3a66,https://upload.wikimedia.org/wikipedia/commons/4/49/Jenolan_Caves_13.jpg,154115,Category:Jenolan_Caves,Jenolan Caves House,-33.82055556,150.02144444,Jenolan Caves,New South Wales,Australia,data/train/images/0/1/f/01f871b233ea3a66.jpg
2790591,01c95e474beeffe1,https://upload.wikimedia.org/wikipedia/commons/1/11/Rockbasedlichen03GorrieWA.jpg,88115,Category:Darling_Range,Mount Cooke,-32.4167,116.3,,Western Australia,Australia,data/train/images/0/1/c/01c95e474beeffe1.jpg
2801417,028ea6cc50c85646,https://upload.wikimedia.org/wikipedia/commons/a/ae/Auckland_Art_Gallery%2C_Auckland_-_0218.jpg,161686,Category:Auckland_Art_Gallery,Auckland Art Gallery,-36.851354,174.766237,Auckland,Auckland,New Zealand,data/train/images/0/2/8/028ea6cc50c85646.jpg
2822373,030d5b6192b4facb,https://upload.wikimedia.org/wikipedia/commons/0/0d/Fremantle_Prison_-_Joy_of_Museums_-_Main_Cell_Block.jpg,110717,Category:Fremantle_Prison,Fremantle Prison,-32.055039,115.753177,Fremantle,Western Australia,Australia,data/train/images/0/3/0/030d5b6192b4facb.jpg
2826356,0134fe3bff66bf7d,https://upload.wikimedia.org/wikipedia/commons/8/8c/In_the_Kalbarri_National_Park_%2815189794315%29.jpg,22877,Category:Kalbarri_National_Park,Kalbarri National Park,-27.7847,114.246,,Western Australia,Australia,data/train/images/0/1/3/0134fe3bff66bf7d.jpg
2829272,011372a90766414c,https://upload.wikimedia.org/wikipedia/commons/5/59/King_Corn_%2827093960631%29.jpg,80942,Category:Wellington_Harbour,Ngauranga,-41.267655,174.838536,Wellington,Wellington,New Zealand,data/train/images/0/1/1/011372a90766414c.jpg
2866709,01d7fdb6bdb42dc6,https://upload.wikimedia.org/wikipedia/commons/4/42/Enlight2.jpg,172998,Category:Black_Mountain_Tower,Black Mountain Tower,-35.27558611,149.09781667,Canberra,,Australia,data/train/images/0/1/d/01d7fdb6bdb42dc6.jpg
2881106,00ded2eadee163f5,https://upload.wikimedia.org/wikipedia/commons/6/61/Kosciuszko_National_Park_NSW_2627%2C_Australia_-_panoramio_%28389%29.jpg,73064,Category:Kosciuszko_National_Park,Intake Tower,-35.99833333,148.3344444,,New South Wales,Australia,data/train/images/0/0/d/00ded2eadee163f5.jpg
2885100,01c74a6acdec51d8,https://upload.wikimedia.org/wikipedia/commons/b/bc/Eureka_Tower_%28Melbourne%29_%2810900636904%29.jpg,167099,Category:Eureka_Tower,Eureka Tower,-37.82166667,144.96444444,Melbourne,Victoria,Australia,data/train/images/0/1/c/01c74a6acdec51d8.jpg
2900130,02a3e0299748f376,https://upload.wikimedia.org/wikipedia/commons/6/62/Takiroa_Rock_Formations_3_%2831396218856%29.jpg,203000,Category:Taiaroa_Head,Port Otago Signal Station,-45.7748,170.728,,Otago,New Zealand,data/train/images/0/2/a/02a3e0299748f376.jpg
2945378,0112bf4fdc6f9042,https://upload.wikimedia.org/wikipedia/commons/d/d8/Grampians_National_Park_%2837822272981%29.jpg,184919,Category:Grampians_National_Park,Glenelg River Road,-37.2078,142.4,,Victoria,Australia,data/train/images/0/1/1/0112bf4fdc6f9042.jpg
2960078,01edff4b32944a56,https://upload.wikimedia.org/wikipedia/commons/9/93/Pudding_Island%2C_Otago_Harbour%2C_NZ.jpg,185662,Category:Otago_Harbour,Portobello,-45.81666667,170.65,,Otago,New Zealand,data/train/images/0/1/e/01edff4b32944a56.jpg
2984051,02e1d52b58495410,http://upload.wikimedia.org/wikipedia/commons/b/b6/OIC_kalbarri_NP_z_bend_2.jpg,22877,Category:Kalbarri_National_Park,Kalbarri National Park,-27.7847,114.246,,Western Australia,Australia,data/train/images/0/2/e/02e1d52b58495410.jpg
2984217,02dec69d6a8caac6,http://upload.wikimedia.org/wikipedia/commons/1/16/WA_Police_TRG_boat.jpg,143736,"Category:Narrows_Bridge,_Perth",Narrows Bridge,-31.96333333,115.84694444,Perth,Western Australia,Australia,data/train/images/0/2/d/02dec69d6a8caac6.jpg
2986513,00956abae747b73f,https://upload.wikimedia.org/wikipedia/commons/e/ed/CSIRO_ScienceImage_4049_Tree_branches_along_the_edge_of_the_Burdekin_River_near_Charters_Towers_QLD.jpg,323,Category:Burdekin_River,Rita Island,-19.65,147.5,,Queensland,Australia,data/train/images/0/0/9/00956abae747b73f.jpg
3014464,00ae9b8625ef42c5,https://upload.wikimedia.org/wikipedia/commons/0/0f/UlararaCounty1map.png,148806,Category:Uluru-Kata_Tjuta_National_Park,Petermann,-25.322076,130.985732,,,Australia,data/train/images/0/0/a/00ae9b8625ef42c5.jpg
3062105,001b5c6af1155a57,https://upload.wikimedia.org/wikipedia/commons/e/e2/City_Logo_%2826609271811%29.jpg,140361,Category:Wellington_Botanic_Garden,Discovery Garden,-41.2829,174.766,Wellington,Wellington,New Zealand,data/train/images/0/0/1/001b5c6af1155a57.jpg
3087350,02c7206b95bb0b78,https://upload.wikimedia.org/wikipedia/commons/d/d6/Melbourne-GJ5.jpg,183119,Category:Freshwater_Place,The Meat and Wine Co.,-37.8215,144.962,Melbourne,Victoria,Australia,data/train/images/0/2/c/02c7206b95bb0b78.jpg
3089610,00b4242e49d1c445,https://upload.wikimedia.org/wikipedia/commons/6/6c/NZ_Bellbird%2C_feeding_01.jpg,119525,Category:Karori_Wildlife_Sanctuary,,-41.294375,174.750025,Wellington,Wellington,New Zealand,data/train/images/0/0/b/00b4242e49d1c445.jpg
3090393,015716a4923440b1,https://upload.wikimedia.org/wikipedia/commons/d/de/Egmont_National_Park%2C_December_2015%2C_New_Zealand_%2812%29.JPG,150865,Category:Egmont_National_Park,Ahukawakawa Track,-39.26666667,174.1,,Taranaki,New Zealand,data/train/images/0/1/5/015716a4923440b1.jpg
3108478,0268bee60b099a7b,https://upload.wikimedia.org/wikipedia/commons/0/00/Ostriches_at_Canberra_Zoo%2C_May_2017.jpg,29541,Category:National_Zoo_&_Aquarium,National Zoo and Aquarium,-35.3006,149.069,District of Molonglo Valley,,Australia,data/train/images/0/2/6/0268bee60b099a7b.jpg
3127544,0085dbeab36540ba,https://upload.wikimedia.org/wikipedia/commons/9/95/Lake_Tekapo_13.jpg,38984,Category:Lake_Tekapo,Mackenzie District,-43.9,170.525,,Canterbury,New Zealand,data/train/images/0/0/8/0085dbeab36540ba.jpg
3167144,001ee869878d6253,https://upload.wikimedia.org/wikipedia/commons/a/a7/Fishing_boat_Otago_Habour.jpg,185662,Category:Otago_Harbour,Portobello,-45.81666667,170.65,,Otago,New Zealand,data/train/images/0/0/1/001ee869878d6253.jpg
3173207,004c23619f049dd9,https://upload.wikimedia.org/wikipedia/commons/e/ef/Royal_National_Park_-_panoramio_%2810%29.jpg,177194,Category:Royal_National_Park,Karani Trail,-34.13166667,151.0511111,,New South Wales,Australia,data/train/images/0/0/4/004c23619f049dd9.jpg
3186376,014fda9d67bffe07,https://upload.wikimedia.org/wikipedia/commons/2/22/Fauna_de_Australia26.JPG,131293,Category:Sydney_Aquarium,SEA LIFE Sydney Aquarium,-33.8694,151.202,Sydney,New South Wales,Australia,data/train/images/0/1/4/014fda9d67bffe07.jpg
3232803,025dfac3731e43d3,https://upload.wikimedia.org/wikipedia/commons/4/4d/Lady_Woodward_Sydney_Ferry_model_%286794301920%29.jpg,157922,Category:Powerhouse_Museum,Powerhouse Museum,-33.87861111,151.19944444,Sydney,New South Wales,Australia,data/train/images/0/2/5/025dfac3731e43d3.jpg
3259653,01f2e19442fc222d,https://upload.wikimedia.org/wikipedia/commons/d/d4/Gibberagong_Trail_-_panoramio_%2815%29.jpg,37463,Category:Ku-ring-gai_Chase_National_Park,Cowan Drive,-33.615,151.2011111,Sydney,New South Wales,Australia,data/train/images/0/1/f/01f2e19442fc222d.jpg
3264155,0020ab5407ffb0fb,https://upload.wikimedia.org/wikipedia/commons/d/d6/Beautiful_View_of_Ruapehu_Mount_New_Zealand_-_panoramio.jpg,31601,Category:Mount_Ruapehu,Ruapehu District,-39.28166667,175.56861111,,Manawat큰-Whanganui,New Zealand,data/train/images/0/0/2/0020ab5407ffb0fb.jpg
3302286,0307f4ef874e624d,https://upload.wikimedia.org/wikipedia/commons/8/8d/Termite_Magnetic_DSC03613.jpg,195468,Category:Litchfield_National_Park,Litchfield Park,-13.0547,130.905,,,Australia,data/train/images/0/3/0/0307f4ef874e624d.jpg
3307701,0032ede9be8cd58e,https://upload.wikimedia.org/wikipedia/commons/7/71/Auckland_Harbour_Bridge_Extentsions_%281969%29_%2829045264036%29.jpg,182332,Category:Auckland_Harbour_Bridge,Auckland Harbour Bridge,-36.82944444,174.74638889,Kaip훮tiki,Auckland,New Zealand,data/train/images/0/0/3/0032ede9be8cd58e.jpg
3313154,0167b35f24f71010,https://upload.wikimedia.org/wikipedia/commons/9/9a/Hugh_llewelyn_Xa_1402_%285681427614%29.jpg,7881,Category:Western_Australian_Rail_Transport_Museum,Railway Museum,-31.9097,115.939,,Western Australia,Australia,data/train/images/0/1/6/0167b35f24f71010.jpg
3313502,004599a9cd50f29f,https://upload.wikimedia.org/wikipedia/commons/f/f2/Dunedin_-_Baldwin_Street_%28870339794%29.jpg,184829,"Category:Baldwin_Street,_Dunedin",,-45.84944444,170.53472222,Dunedin,Otago,New Zealand,data/train/images/0/0/4/004599a9cd50f29f.jpg
3316064,02d8c55a66a3dd8f,https://upload.wikimedia.org/wikipedia/commons/f/f9/Cape_Otway_Lighthouse_%286436260449%29.jpg,100764,Category:Cape_Otway_Lighthouse,,-38.85722222,143.51166667,,Victoria,Australia,data/train/images/0/2/d/02d8c55a66a3dd8f.jpg
3323390,001a1a7963fa80cf,https://upload.wikimedia.org/wikipedia/commons/f/fd/Bassendean_rail_museum_gnangarra_13.jpg,7881,Category:Western_Australian_Rail_Transport_Museum,Railway Museum,-31.9097,115.939,,Western Australia,Australia,data/train/images/0/0/1/001a1a7963fa80cf.jpg
3376426,0004e7fc779c5e94,https://upload.wikimedia.org/wikipedia/commons/2/2f/Taipan_Wall_%2837519062581%29.jpg,184919,Category:Grampians_National_Park,Glenelg River Road,-37.2078,142.4,,Victoria,Australia,data/train/images/0/0/0/0004e7fc779c5e94.jpg
3379259,0183d252bef1fab5,http://upload.wikimedia.org/wikipedia/commons/9/94/Grosvenor_Chambers_Melbourne.jpg,25117,"Category:Collins_Street,_Melbourne",Optus Centre,-37.8168,144.9622,Melbourne,Victoria,Australia,data/train/images/0/1/8/0183d252bef1fab5.jpg
3386165,013ffd503e482e61,https://upload.wikimedia.org/wikipedia/commons/6/65/%281%29Andrea_Stretton_Centennial_Park.jpg,147120,"Category:Centennial_Park,_Sydney",Grand Drive,-33.9,151.23333333,Sydney,New South Wales,Australia,data/train/images/0/1/3/013ffd503e482e61.jpg
3405637,01f599fcd11cefaa,https://upload.wikimedia.org/wikipedia/commons/b/b9/Sydney_Opera_House_-_panoramio_%289%29.jpg,55350,Category:Sydney_Opera_House,Sydney Opera House,-33.857058,151.214897,Sydney,New South Wales,Australia,data/train/images/0/1/f/01f599fcd11cefaa.jpg
3406433,01fc85560cfc4b16,https://upload.wikimedia.org/wikipedia/commons/1/10/%22Golden_Water_Mouth%22_%281999%29_by_Lin_Li.jpg,181290,"Category:Chinatown,_Sydney",,-33.87878056,151.20408056,Sydney,New South Wales,Australia,data/train/images/0/1/f/01fc85560cfc4b16.jpg
3429209,029e1ef3cdf46063,https://upload.wikimedia.org/wikipedia/commons/b/bc/Oneroa_Beach%2C_Waiheke_Island.jpg,81069,Category:Waiheke_Island,Awaroa Organic Winery,-36.8,175.1,Waiheke,Auckland,New Zealand,data/train/images/0/2/9/029e1ef3cdf46063.jpg
3437020,00ab873d9f7a12b6,https://upload.wikimedia.org/wikipedia/commons/e/e5/Royal_National_Park_Coast_Track_-_panoramio_%284%29.jpg,177194,Category:Royal_National_Park,Karani Trail,-34.13166667,151.0511111,,New South Wales,Australia,data/train/images/0/0/a/00ab873d9f7a12b6.jpg
3444229,001d5bf687458c97,https://upload.wikimedia.org/wikipedia/commons/e/e3/Tablelands_Milla_Milla_Falls-05_%285573371819%29.jpg,197827,Category:Millaa_Millaa_Falls,,-17.49555556,145.61,Millaa Millaa,Queensland,Australia,data/train/images/0/0/1/001d5bf687458c97.jpg
3452296,01f0c0d7680f594c,https://upload.wikimedia.org/wikipedia/commons/a/a5/View_into_the_Hunter_Valley_-_Barrington_Tops_National_Park.jpg,165304,Category:Barrington_Tops_National_Park,Barrington Tops,-32.04833333,151.5011111,,New South Wales,Australia,data/train/images/0/1/f/01f0c0d7680f594c.jpg
3458362,01a9ff50366093b2,https://upload.wikimedia.org/wikipedia/commons/a/a3/Asali_gnangarra_160915-112.jpg,183340,Category:Monarto_Zoo,,-35.1021,139.142,,South Australia,Australia,data/train/images/0/1/a/01a9ff50366093b2.jpg
3467283,00d3f98dba493243,https://upload.wikimedia.org/wikipedia/commons/b/b4/%281%29Sydney_Cricket_Ground-3aa.jpg,181626,Category:Sydney_Cricket_Ground,Sydney Cricket Ground,-33.89166667,151.22472222,Sydney,New South Wales,Australia,data/train/images/0/0/d/00d3f98dba493243.jpg
3495115,02015ad9b733a6c9,https://upload.wikimedia.org/wikipedia/commons/b/b7/%281%29Sydney_from_Centennial_Park.jpg,147120,"Category:Centennial_Park,_Sydney",Grand Drive,-33.9,151.23333333,Sydney,New South Wales,Australia,data/train/images/0/2/0/02015ad9b733a6c9.jpg
3521840,0231fceaf227734e,http://upload.wikimedia.org/wikipedia/commons/8/84/Syd%2C_the_bridge_and_harbour.jpg,94310,Category:Sydney_Harbour_Bridge,Sydney Harbour Bridge,-33.852232,151.210684,Sydney,New South Wales,Australia,data/train/images/0/2/3/0231fceaf227734e.jpg
3536034,00b0b2525765de01,https://upload.wikimedia.org/wikipedia/commons/f/f6/Meelbourne_scraper.jpg,101233,Category:120_Collins_Street,,-37.81383333,144.9695,Melbourne,Victoria,Australia,data/train/images/0/0/b/00b0b2525765de01.jpg
3564977,02d597906e53aa75,https://upload.wikimedia.org/wikipedia/commons/5/59/Achyra_affinitalis_%2832517938052%29.jpg,174812,Category:Wyperfeld_National_Park,Millers Track,-35.3892,141.877,,Victoria,Australia,data/train/images/0/2/d/02d597906e53aa75.jpg
3588894,0118390099d51a62,https://upload.wikimedia.org/wikipedia/commons/b/b2/Clarke_Park_%286088894550%29.jpg,94310,Category:Sydney_Harbour_Bridge,Sydney Harbour Bridge,-33.852232,151.210684,Sydney,New South Wales,Australia,data/train/images/0/1/1/0118390099d51a62.jpg
3622034,01599e627638b3d3,https://upload.wikimedia.org/wikipedia/commons/a/a2/Granite_Bay_Rocks.jpg,182417,Category:Noosa_National_Park,Tanglewood Track,-26.38444444,153.11277778,Noosa Heads,Queensland,Australia,data/train/images/0/1/5/01599e627638b3d3.jpg
3641238,02080c53311c4484,https://upload.wikimedia.org/wikipedia/commons/b/bb/Tongariro_from_the_air.jpg,141045,Category:Mount_Tongariro,Mount Tongariro Summit Route,-39.12972222,175.63583333,,Waikato,New Zealand,data/train/images/0/2/0/02080c53311c4484.jpg
3679384,00067b878ca9cf58,https://upload.wikimedia.org/wikipedia/commons/4/4e/Christchurch_Cathedral.jpg,154306,"Category:ChristChurch_Cathedral,_Christchurch",ChristChurch Cathedral Columbarium,-43.531,172.637,Christchurch,Canterbury,New Zealand,data/train/images/0/0/0/00067b878ca9cf58.jpg
3687870,01c60164563c32bc,https://upload.wikimedia.org/wikipedia/commons/0/0b/Wellington_Cable_Car_07.JPG,100738,Category:Wellington_Cable_Car,Wellington Botanic Garden,-41.28527778,174.7675,Wellington,Wellington,New Zealand,data/train/images/0/1/c/01c60164563c32bc.jpg
3702965,023d195604e44cce,https://upload.wikimedia.org/wikipedia/commons/0/05/Drosera16294691399_e2e53b35cd_o.jpg,110975,Category:Barren_Grounds_Nature_Reserve,Griffiths Trail,-34.6833,150.717,,New South Wales,Australia,data/train/images/0/2/3/023d195604e44cce.jpg
3735766,00cf894f996ee59e,https://upload.wikimedia.org/wikipedia/commons/f/fa/PyrmontBridgeSydney6_gobeirne.jpg,6010,"Category:Pyrmont_Bridge,_Sydney",Pyrmont Bridge,-33.8706,151.201,Sydney,New South Wales,Australia,data/train/images/0/0/c/00cf894f996ee59e.jpg
3740142,0294b42d20e5d329,https://upload.wikimedia.org/wikipedia/commons/a/a3/After_Game_Kick_and_Catch_%2813750115664%29.jpg,166222,Category:Adelaide_Oval,,-34.91555556,138.59611111,Adelaide,South Australia,Australia,data/train/images/0/2/9/0294b42d20e5d329.jpg
3740224,00a96b03e44cbfd1,https://upload.wikimedia.org/wikipedia/commons/2/28/2013-03-06_Daldinia_dennisii_Wollw.%2C_J.A._Simpson_%26_M._Stadler_%282004%29_314334.jpg,81069,Category:Waiheke_Island,Awaroa Organic Winery,-36.8,175.1,Waiheke,Auckland,New Zealand,data/train/images/0/0/a/00a96b03e44cbfd1.jpg
3784452,02fbe2d2d341cbe2,https://upload.wikimedia.org/wikipedia/commons/8/89/Crown_Casino_complex_at_South_Bank_of_the_Yarra_River.jpg,135030,Category:Rialto_Towers,,-37.81888889,144.95833333,Melbourne,Victoria,Australia,data/train/images/0/2/f/02fbe2d2d341cbe2.jpg
3811434,00e909272dc4e253,https://upload.wikimedia.org/wikipedia/commons/6/68/Berry_Hotel_001.JPG,57668,"Category:Berry,_New_South_Wales",,-34.78166667,150.7011111,Berry,New South Wales,Australia,data/train/images/0/0/e/00e909272dc4e253.jpg
3823965,02619a6f949b48f3,https://upload.wikimedia.org/wikipedia/commons/b/be/ER_%22ABA%22_Composite_No.ABA14_%287528286750%29.jpg,7881,Category:Western_Australian_Rail_Transport_Museum,Railway Museum,-31.9097,115.939,,Western Australia,Australia,data/train/images/0/2/6/02619a6f949b48f3.jpg
3842833,004f4dd830618ce4,https://upload.wikimedia.org/wikipedia/commons/9/90/Kangaroo_Island-kangaroo.jpg,104138,Category:Flinders_Chase_National_Park,Flinders Chase,-35.9772,136.673,,South Australia,Australia,data/train/images/0/0/4/004f4dd830618ce4.jpg
3847602,01ae3d94b50b89c5,https://upload.wikimedia.org/wikipedia/commons/8/83/Gough_Whitlam_bust.jpg,52184,Category:Prime_Minister's_Avenue,Olympic Rowing Course,-37.54805556,143.83833333,Ballarat,Victoria,Australia,data/train/images/0/1/a/01ae3d94b50b89c5.jpg
3868584,016f12fd3e2b8948,https://upload.wikimedia.org/wikipedia/commons/a/a8/Sydney_Observatory_-_Sydney%2C_NSW_%287889941256%29.jpg,58573,Category:Sydney_Observatory,Sydney Observatory,-33.859559,151.204583,Sydney,New South Wales,Australia,data/train/images/0/1/6/016f12fd3e2b8948.jpg
3890696,01c895248651672a,https://upload.wikimedia.org/wikipedia/commons/d/d1/Milford_Sound_6_%2831623135356%29.jpg,50915,Category:Milford_Sound,Southland,-44.61666667,167.86666667,,Southland,New Zealand,data/train/images/0/1/c/01c895248651672a.jpg
3892935,017c8911487d0b07,https://upload.wikimedia.org/wikipedia/commons/d/d6/Botanical_gardens_main_entrance.jpg,170943,"Category:Royal_Botanic_Gardens,_Melbourne",Royal Botanic Gardens,-37.83036,144.97961,Melbourne,Victoria,Australia,data/train/images/0/1/7/017c8911487d0b07.jpg
3909595,007fcceda75fdef5,https://upload.wikimedia.org/wikipedia/commons/0/00/WAGR_%22AN%22_Vice_Regal_Car_NO.AN413_%287528253406%29.jpg,7881,Category:Western_Australian_Rail_Transport_Museum,Railway Museum,-31.9097,115.939,,Western Australia,Australia,data/train/images/0/0/7/007fcceda75fdef5.jpg
3953663,01f7b0c7678dedf7,http://upload.wikimedia.org/wikipedia/commons/6/67/Western_Front_Gallery_at_the_Australian_War_Memorial_%28MG_9512%29.jpg,126465,Category:Australian_War_Memorial,Australian War Memorial,-35.280815,149.148707,Canberra,,Australia,data/train/images/0/1/f/01f7b0c7678dedf7.jpg
3958384,01ea7dc4bf00773d,https://upload.wikimedia.org/wikipedia/commons/6/6a/National_Gallery_of_Victoria_Level_3_Contemporary_Art_%26_Design_2017.jpg,78216,Category:National_Gallery_of_Victoria,,-37.8225,144.96888889,Melbourne,Victoria,Australia,data/train/images/0/1/e/01ea7dc4bf00773d.jpg
3958895,0002920d04bc04b1,http://upload.wikimedia.org/wikipedia/commons/d/d4/Brisbane_Riverside_Expressway.jpg,196031,Category:Brisbane_River,,-27.4,153.15,,Queensland,Australia,data/train/images/0/0/0/0002920d04bc04b1.jpg
3970461,002770780fbf1971,https://upload.wikimedia.org/wikipedia/commons/7/74/BasaltDykes_LordHoweIsland_7June2011.jpg,17949,Category:Lord_Howe_Island,Smoking Tree Ridge Road,-31.55,159.08333333,Lord Howe Island,New South Wales,Australia,data/train/images/0/0/2/002770780fbf1971.jpg
4002291,00f9cf8c15a40b28,https://upload.wikimedia.org/wikipedia/commons/5/5c/Parliament_House_Of_Victoria_%2841838386%29.jpeg,200572,"Category:Spring_Street,_Melbourne",Windsor Hotel,-37.8119,144.973,Melbourne,Victoria,Australia,data/train/images/0/0/f/00f9cf8c15a40b28.jpg
4008425,012f96cd5736c27c,https://upload.wikimedia.org/wikipedia/commons/5/58/Frazier_Island_-_The_giant_ferns_2_%284096762113%29.jpg,127687,Category:Fraser_Island,The Declivity,-25.24,153.15,,Queensland,Australia,data/train/images/0/1/2/012f96cd5736c27c.jpg
4014464,00352f40b6c789be,https://upload.wikimedia.org/wikipedia/commons/0/0a/Royal_Exhibition_Building_11.JPG,189609,Category:Royal_Exhibition_Building,Royal Exhibition Building,-37.80472222,144.97138889,Melbourne,Victoria,Australia,data/train/images/0/0/3/00352f40b6c789be.jpg
4026650,02a72df96f5ee6f5,https://upload.wikimedia.org/wikipedia/commons/6/61/Gardenology.org-IMG_8281_rbgc10dec.jpg,184275,"Category:Royal_Botanic_Gardens,_Cranbourne",Stringybark Drive,-38.129,145.282,Melbourne,Victoria,Australia,data/train/images/0/2/a/02a72df96f5ee6f5.jpg
4036763,010c136d71bf2b02,https://upload.wikimedia.org/wikipedia/commons/9/9e/Trawler_at_Darwins_Stokes_Hill_Wharf_in_1978_%284673047561%29.jpg,68910,Category:Stokes_Hill_Wharf,Stokes Hill Wharf,-12.4704,130.8492,,,Australia,data/train/images/0/1/0/010c136d71bf2b02.jpg
4042116,021d3712a189f38a,http://upload.wikimedia.org/wikipedia/commons/3/31/Coastal-cliffs_Tasman-peninsula.jpg,140673,Category:Tasman_Peninsula,Arthur Highway,-43.08,147.86,Tasman,Tasmania,Australia,data/train/images/0/2/1/021d3712a189f38a.jpg
4050955,02791ea994f3e157,https://upload.wikimedia.org/wikipedia/commons/a/aa/LHD_4_USS_Boxer_at_Darwin%27s_Stokes_Hill_Wharf_in_August_1997_%2822%29.jpg,68910,Category:Stokes_Hill_Wharf,Stokes Hill Wharf,-12.4704,130.8492,,,Australia,data/train/images/0/2/7/02791ea994f3e157.jpg
4051087,01e0a6b40d928676,https://upload.wikimedia.org/wikipedia/commons/6/65/Clouds_at_Sunrise_%2814383360423%29.jpg,184919,Category:Grampians_National_Park,Glenelg River Road,-37.2078,142.4,,Victoria,Australia,data/train/images/0/1/e/01e0a6b40d928676.jpg
4065235,02bb2a76ba52521d,https://upload.wikimedia.org/wikipedia/commons/d/d5/2013NZ19.JPG,50915,Category:Milford_Sound,Southland,-44.61666667,167.86666667,,Southland,New Zealand,data/train/images/0/2/b/02bb2a76ba52521d.jpg
4102165,02c215458bd05536,https://upload.wikimedia.org/wikipedia/commons/1/1a/Lord_Howe_Island_Cycling_past_Lovers_Cove.JPG,17949,Category:Lord_Howe_Island,Smoking Tree Ridge Road,-31.55,159.08333333,Lord Howe Island,New South Wales,Australia,data/train/images/0/2/c/02c215458bd05536.jpg
4103062,00ece521d7f90f53,https://upload.wikimedia.org/wikipedia/commons/6/69/Fire_damaged_house_on_the_NSW_side_of_the_Murray_River%2C_viewed_from_Gateway_Island.jpg,98896,Category:Murray_River,Indi Springs,-36.7961,148.1944,,New South Wales,Australia,data/train/images/0/0/e/00ece521d7f90f53.jpg
4131698,00de9755a042c271,https://upload.wikimedia.org/wikipedia/commons/d/dd/Kosciuszko_National_Park_NSW_2627%2C_Australia_-_panoramio_%28241%29.jpg,73064,Category:Kosciuszko_National_Park,Intake Tower,-35.99833333,148.3344444,,New South Wales,Australia,data/train/images/0/0/d/00de9755a042c271.jpg
4132669,02bcf1355ca1f52d,https://upload.wikimedia.org/wikipedia/commons/e/e8/The_Chasm_at_Fiordland_National_Park_%284687737831%29.jpg,120041,Category:Fiordland_National_Park,,-45.4167,167.717,Fiordland Community,Southland,New Zealand,data/train/images/0/2/b/02bcf1355ca1f52d.jpg
